{
  "type": "FeatureCollection",
  "features": [
    {
      "type": "Feature",
      "properties": {
        "norad_id": 29904,
        "name": "FENGYUN 1C DEB",
        "group": "fengyun-1c-debris",
        "lat": 77.90106720427832,
        "lon": -14.312577077233954,
        "alt_km": 861.658740401952,
        "timestamp": "2025-12-21T05:44:51.857989+00:00",
        "meta_object_name": "FENGYUN 1C DEB",
        "meta_object_id": "1999-025HA",
        "meta_epoch": "2025-12-20T21:03:13.129920",
        "meta_mean_motion": 14.44507823,
        "meta_eccentricity": 0.02075006,
        "meta_inclination": 99.0408,
        "meta_ra_of_asc_node": 33.2687,
        "meta_arg_of_pericenter": 294.3948,
        "meta_mean_anomaly": 63.5712,
        "meta_ephemeris_type": 0,
        "meta_classification_type": "U",
        "meta_norad_cat_id": 29904,
        "meta_element_set_no": 999,
        "meta_rev_at_epoch": 99181,
        "meta_bstar": 0.00030073802,
        "meta_mean_motion_dot": 1.289e-05,
        "meta_mean_motion_ddot": 0,
        "tle_line1": "1 29904U 99025HA  25354.87723530  .00001289  00000+0  30074-3 0  9999",
        "tle_line2": "2 29904  99.0408  33.2687 0207500 294.3948  63.5712 14.44507823991818"
      },
      "geometry": {
        "type": "Point",
        "coordinates": [
          -14.312577077233954,
          77.90106720427832
        ]
      }
    },
    {
      "type": "Feature",
      "properties": {
        "norad_id": 29906,
        "name": "FENGYUN 1C DEB",
        "group": "fengyun-1c-debris",
        "lat": 25.08311376932071,
        "lon": -77.02433756695562,
        "alt_km": 703.1315851181807,
        "timestamp": "2025-12-21T05:44:51.857999+00:00",
        "meta_object_name": "FENGYUN 1C DEB",
        "meta_object_id": "1999-025HC",
        "meta_epoch": "2025-12-20T05:51:01.021248",
        "meta_mean_motion": 14.49757032,
        "meta_eccentricity": 0.0036627,
        "meta_inclination": 98.7066,
        "meta_ra_of_asc_node": 97.8344,
        "meta_arg_of_pericenter": 127.2425,
        "meta_mean_anomaly": 233.2119,
        "meta_ephemeris_type": 0,
        "meta_classification_type": "U",
        "meta_norad_cat_id": 29906,
        "meta_element_set_no": 999,
        "meta_rev_at_epoch": 98266,
        "meta_bstar": 0.0014481,
        "meta_mean_motion_dot": 5.582e-05,
        "meta_mean_motion_ddot": 0,
        "tle_line1": "1 29906U 99025HC  25354.24376182  .00005582  00000+0  14481-2 0  9992",
        "tle_line2": "2 29906  98.7066  97.8344 0036627 127.2425 233.2119 14.49757032982660"
      },
      "geometry": {
        "type": "Point",
        "coordinates": [
          -77.02433756695562,
          25.08311376932071
        ]
      }
    },
    {
      "type": "Feature",
      "properties": {
        "norad_id": 29907,
        "name": "FENGYUN 1C DEB",
        "group": "fengyun-1c-debris",
        "lat": -36.876941379777456,
        "lon": -124.86938516747013,
        "alt_km": 799.3966347363476,
        "timestamp": "2025-12-21T05:44:51.858010+00:00",
        "meta_object_name": "FENGYUN 1C DEB",
        "meta_object_id": "1999-025HD",
        "meta_epoch": "2025-12-20T22:44:25.943136",
        "meta_mean_motion": 14.11678055,
        "meta_eccentricity": 0.0084582,
        "meta_inclination": 99.1112,
        "meta_ra_of_asc_node": 61.7487,
        "meta_arg_of_pericenter": 226.6374,
        "meta_mean_anomaly": 307.8671,
        "meta_ephemeris_type": 0,
        "meta_classification_type": "U",
        "meta_norad_cat_id": 29907,
        "meta_element_set_no": 999,
        "meta_rev_at_epoch": 96714,
        "meta_bstar": 0.0013633332,
        "meta_mean_motion_dot": 2.52e-05,
        "meta_mean_motion_ddot": 0,
        "tle_line1": "1 29907U 99025HD  25354.94752249  .00002520  00000+0  13633-2 0  9999",
        "tle_line2": "2 29907  99.1112  61.7487 0084582 226.6374 307.8671 14.11678055967149"
      },
      "geometry": {
        "type": "Point",
        "coordinates": [
          -124.86938516747013,
          -36.876941379777456
        ]
      }
    },
    {
      "type": "Feature",
      "properties": {
        "norad_id": 29909,
        "name": "FENGYUN 1C DEB",
        "group": "fengyun-1c-debris",
        "lat": 37.37297351635944,
        "lon": 92.65882397897393,
        "alt_km": 688.2549165000846,
        "timestamp": "2025-12-21T05:44:51.858020+00:00",
        "meta_object_name": "FENGYUN 1C DEB",
        "meta_object_id": "1999-025HF",
        "meta_epoch": "2025-12-20T20:13:45.242400",
        "meta_mean_motion": 14.55242966,
        "meta_eccentricity": 0.00381039,
        "meta_inclination": 98.6346,
        "meta_ra_of_asc_node": 98.9141,
        "meta_arg_of_pericenter": 349.6463,
        "meta_mean_anomaly": 131.4366,
        "meta_ephemeris_type": 0,
        "meta_classification_type": "U",
        "meta_norad_cat_id": 29909,
        "meta_element_set_no": 999,
        "meta_rev_at_epoch": 98523,
        "meta_bstar": 0.0012261898,
        "meta_mean_motion_dot": 5.312e-05,
        "meta_mean_motion_ddot": 0,
        "tle_line1": "1 29909U 99025HF  25354.84288475  .00005312  00000+0  12262-2 0  9994",
        "tle_line2": "2 29909  98.6346  98.9141 0038103 349.6463 131.4366 14.55242966985234"
      },
      "geometry": {
        "type": "Point",
        "coordinates": [
          92.65882397897393,
          37.37297351635944
        ]
      }
    },
    {
      "type": "Feature",
      "properties": {
        "norad_id": 29911,
        "name": "FENGYUN 1C DEB",
        "group": "fengyun-1c-debris",
        "lat": 26.26999558858933,
        "lon": -137.45112409276277,
        "alt_km": 810.3627055492389,
        "timestamp": "2025-12-21T05:44:51.858030+00:00",
        "meta_object_name": "FENGYUN 1C DEB",
        "meta_object_id": "1999-025HH",
        "meta_epoch": "2025-12-20T16:04:53.222880",
        "meta_mean_motion": 14.18876002,
        "meta_eccentricity": 0.00274247,
        "meta_inclination": 98.7148,
        "meta_ra_of_asc_node": 37.6474,
        "meta_arg_of_pericenter": 129.036,
        "meta_mean_anomaly": 357.1459,
        "meta_ephemeris_type": 0,
        "meta_classification_type": "U",
        "meta_norad_cat_id": 29911,
        "meta_element_set_no": 999,
        "meta_rev_at_epoch": 97543,
        "meta_bstar": 0.00051095451,
        "meta_mean_motion_dot": 1.024e-05,
        "meta_mean_motion_ddot": 0,
        "tle_line1": "1 29911U 99025HH  25354.67006045  .00001024  00000+0  51095-3 0  9993",
        "tle_line2": "2 29911  98.7148  37.6474 0027424 129.0360 357.1459 14.18876002975431"
      },
      "geometry": {
        "type": "Point",
        "coordinates": [
          -137.45112409276277,
          26.26999558858933
        ]
      }
    },
    {
      "type": "Feature",
      "properties": {
        "norad_id": 29912,
        "name": "FENGYUN 1C DEB",
        "group": "fengyun-1c-debris",
        "lat": 50.0290853888732,
        "lon": -76.52295618319216,
        "alt_km": 730.6790819577163,
        "timestamp": "2025-12-21T05:44:51.858041+00:00",
        "meta_object_name": "FENGYUN 1C DEB",
        "meta_object_id": "1999-025HJ",
        "meta_epoch": "2025-12-20T05:58:41.998944",
        "meta_mean_motion": 14.43076298,
        "meta_eccentricity": 0.0043248,
        "meta_inclination": 98.7395,
        "meta_ra_of_asc_node": 91.8872,
        "meta_arg_of_pericenter": 197.2415,
        "meta_mean_anomaly": 190.0813,
        "meta_ephemeris_type": 0,
        "meta_classification_type": "U",
        "meta_norad_cat_id": 29912,
        "meta_element_set_no": 999,
        "meta_rev_at_epoch": 98147,
        "meta_bstar": 0.0014256,
        "meta_mean_motion_dot": 4.791e-05,
        "meta_mean_motion_ddot": 0,
        "tle_line1": "1 29912U 99025HJ  25354.24909721  .00004791  00000+0  14256-2 0  9991",
        "tle_line2": "2 29912  98.7395  91.8872 0043248 197.2415 190.0813 14.43076298981476"
      },
      "geometry": {
        "type": "Point",
        "coordinates": [
          -76.52295618319216,
          50.0290853888732
        ]
      }
    },
    {
      "type": "Feature",
      "properties": {
        "norad_id": 29913,
        "name": "FENGYUN 1C DEB",
        "group": "fengyun-1c-debris",
        "lat": -48.945889625758234,
        "lon": 163.62688181547438,
        "alt_km": 832.3761815871294,
        "timestamp": "2025-12-21T05:44:51.858051+00:00",
        "meta_object_name": "FENGYUN 1C DEB",
        "meta_object_id": "1999-025HK",
        "meta_epoch": "2025-12-20T12:11:01.056768",
        "meta_mean_motion": 14.07391308,
        "meta_eccentricity": 0.00618362,
        "meta_inclination": 98.7877,
        "meta_ra_of_asc_node": 353.1456,
        "meta_arg_of_pericenter": 249.3013,
        "meta_mean_anomaly": 234.6873,
        "meta_ephemeris_type": 0,
        "meta_classification_type": "U",
        "meta_norad_cat_id": 29913,
        "meta_element_set_no": 999,
        "meta_rev_at_epoch": 97074,
        "meta_bstar": 0.00024262285,
        "meta_mean_motion_dot": 3.72e-06,
        "meta_mean_motion_ddot": 0,
        "tle_line1": "1 29913U 99025HK  25354.50765112  .00000372  00000+0  24262-3 0  9995",
        "tle_line2": "2 29913  98.7877 353.1456 0061836 249.3013 234.6873 14.07391308970741"
      },
      "geometry": {
        "type": "Point",
        "coordinates": [
          163.62688181547438,
          -48.945889625758234
        ]
      }
    }
  ]
}